CCSDS_OMM_VERS = 2.0
CREATION_DATE  = 
ORIGINATOR     = 

OBJECT_NAME    = KUIPER-00214
OBJECT_ID      = 2026-030Q
CENTER_NAME    = EARTH
REF_FRAME      = TEME
TIME_SYSTEM    = UTC
MEAN_ELEMENT_THEORY = SGP/SGP4

EPOCH          = 2026-02-23T04:12:12.116736
MEAN_MOTION    = 15.36109450
ECCENTRICITY   = .0001821
INCLINATION    = 51.8850
RA_OF_ASC_NODE = 289.0390
ARG_OF_PERICENTER = 148.9267
MEAN_ANOMALY   = 211.1827

EPHEMERIS_TYPE = 0
CLASSIFICATION_TYPE = U
NORAD_CAT_ID   = 67778
ELEMENT_SET_NO = 999
REV_AT_EPOCH   = 286
BSTAR          = .91683E-3
MEAN_MOTION_DOT = .32504E-3
MEAN_MOTION_DDOT = 0

CCSDS_OMM_VERS = 2.0
CREATION_DATE  = 
ORIGINATOR     = 

OBJECT_NAME    = KUIPER-00215
OBJECT_ID      = 2026-030R
CENTER_NAME    = EARTH
REF_FRAME      = TEME
TIME_SYSTEM    = UTC
MEAN_ELEMENT_THEORY = SGP/SGP4

EPOCH          = 2026-02-23T03:00:26.117856
MEAN_MOTION    = 15.33869337
ECCENTRICITY   = .0009912
INCLINATION    = 51.8843
RA_OF_ASC_NODE = 289.4526
ARG_OF_PERICENTER = 17.0208
MEAN_ANOMALY   = 343.1108

EPHEMERIS_TYPE = 0
CLASSIFICATION_TYPE = U
NORAD_CAT_ID   = 67779
ELEMENT_SET_NO = 999
REV_AT_EPOCH   = 285
BSTAR          = .706E-3
MEAN_MOTION_DOT = .23204E-3
MEAN_MOTION_DDOT = 0

CCSDS_OMM_VERS = 2.0
CREATION_DATE  = 
ORIGINATOR     = 

OBJECT_NAME    = KUIPER-00218
OBJECT_ID      = 2026-030S
CENTER_NAME    = EARTH
REF_FRAME      = TEME
TIME_SYSTEM    = UTC
MEAN_ELEMENT_THEORY = SGP/SGP4

EPOCH          = 2026-02-23T02:53:49.750944
MEAN_MOTION    = 15.34583937
ECCENTRICITY   = .0006083
INCLINATION    = 51.8837
RA_OF_ASC_NODE = 289.4216
ARG_OF_PERICENTER = 13.8170
MEAN_ANOMALY   = 346.2981

EPHEMERIS_TYPE = 0
CLASSIFICATION_TYPE = U
NORAD_CAT_ID   = 67780
ELEMENT_SET_NO = 999
REV_AT_EPOCH   = 285
BSTAR          = .10714E-2
MEAN_MOTION_DOT = .36261E-3
MEAN_MOTION_DDOT = 0

CCSDS_OMM_VERS = 2.0
CREATION_DATE  = 
ORIGINATOR     = 

OBJECT_NAME    = KUIPER-00220
OBJECT_ID      = 2026-030T
CENTER_NAME    = EARTH
REF_FRAME      = TEME
TIME_SYSTEM    = UTC
MEAN_ELEMENT_THEORY = SGP/SGP4

EPOCH          = 2026-02-23T02:58:10.288416
MEAN_MOTION    = 15.34095304
ECCENTRICITY   = .0007872
INCLINATION    = 51.8815
RA_OF_ASC_NODE = 289.4381
ARG_OF_PERICENTER = 14.8506
MEAN_ANOMALY   = 345.2709

EPHEMERIS_TYPE = 0
CLASSIFICATION_TYPE = U
NORAD_CAT_ID   = 67781
ELEMENT_SET_NO = 999
REV_AT_EPOCH   = 285
BSTAR          = .75467E-3
MEAN_MOTION_DOT = .25003E-3
MEAN_MOTION_DDOT = 0

CCSDS_OMM_VERS = 2.0
CREATION_DATE  = 
ORIGINATOR     = 

OBJECT_NAME    = KUIPER-00222
OBJECT_ID      = 2026-030U
CENTER_NAME    = EARTH
REF_FRAME      = TEME
TIME_SYSTEM    = UTC
MEAN_ELEMENT_THEORY = SGP/SGP4

EPOCH          = 2026-02-23T03:11:49.589376
MEAN_MOTION    = 15.32428965
ECCENTRICITY   = .0016887
INCLINATION    = 51.8811
RA_OF_ASC_NODE = 289.4964
ARG_OF_PERICENTER = 20.3416
MEAN_ANOMALY   = 339.8238

EPHEMERIS_TYPE = 0
CLASSIFICATION_TYPE = U
NORAD_CAT_ID   = 67782
ELEMENT_SET_NO = 999
REV_AT_EPOCH   = 285
BSTAR          = -.43836E-3
MEAN_MOTION_DOT = -.14349E-3
MEAN_MOTION_DDOT = 0

CCSDS_OMM_VERS = 2.0
CREATION_DATE  = 
ORIGINATOR     = 

OBJECT_NAME    = KUIPER-00223
OBJECT_ID      = 2026-030V
CENTER_NAME    = EARTH
REF_FRAME      = TEME
TIME_SYSTEM    = UTC
MEAN_ELEMENT_THEORY = SGP/SGP4

EPOCH          = 2026-02-23T03:03:05.497344
MEAN_MOTION    = 15.33598050
ECCENTRICITY   = .0011985
INCLINATION    = 51.8831
RA_OF_ASC_NODE = 289.4631
ARG_OF_PERICENTER = 16.8912
MEAN_ANOMALY   = 343.2470

EPHEMERIS_TYPE = 0
CLASSIFICATION_TYPE = U
NORAD_CAT_ID   = 67783
ELEMENT_SET_NO = 999
REV_AT_EPOCH   = 285
BSTAR          = .89655E-3
MEAN_MOTION_DOT = .29359E-3
MEAN_MOTION_DDOT = 0

CCSDS_OMM_VERS = 2.0
CREATION_DATE  = 
ORIGINATOR     = 

OBJECT_NAME    = KUIPER-00225
OBJECT_ID      = 2026-030W
CENTER_NAME    = EARTH
REF_FRAME      = TEME
TIME_SYSTEM    = UTC
MEAN_ELEMENT_THEORY = SGP/SGP4

EPOCH          = 2026-02-23T04:21:11.517984
MEAN_MOTION    = 15.35225347
ECCENTRICITY   = .0003364
INCLINATION    = 51.8816
RA_OF_ASC_NODE = 289.0763
ARG_OF_PERICENTER = 5.4628
MEAN_ANOMALY   = 354.6394

EPHEMERIS_TYPE = 0
CLASSIFICATION_TYPE = U
NORAD_CAT_ID   = 67784
ELEMENT_SET_NO = 999
REV_AT_EPOCH   = 286
BSTAR          = .75054E-3
MEAN_MOTION_DOT = .25769E-3
MEAN_MOTION_DDOT = 0

CCSDS_OMM_VERS = 2.0
CREATION_DATE  = 
ORIGINATOR     = 

OBJECT_NAME    = KUIPER-00226
OBJECT_ID      = 2026-030X
CENTER_NAME    = EARTH
REF_FRAME      = TEME
TIME_SYSTEM    = UTC
MEAN_ELEMENT_THEORY = SGP/SGP4

EPOCH          = 2026-02-23T03:18:36.626688
MEAN_MOTION    = 15.31710744
ECCENTRICITY   = .0019651
INCLINATION    = 51.8809
RA_OF_ASC_NODE = 289.5280
ARG_OF_PERICENTER = 28.2539
MEAN_ANOMALY   = 331.9507

EPHEMERIS_TYPE = 0
CLASSIFICATION_TYPE = U
NORAD_CAT_ID   = 67785
ELEMENT_SET_NO = 999
REV_AT_EPOCH   = 285
BSTAR          = -.68704E-3
MEAN_MOTION_DOT = -.21797E-3
MEAN_MOTION_DDOT = 0

CCSDS_OMM_VERS = 2.0
CREATION_DATE  = 
ORIGINATOR     = 

OBJECT_NAME    = KUIPER-00259
OBJECT_ID      = 2026-030Y
CENTER_NAME    = EARTH
REF_FRAME      = TEME
TIME_SYSTEM    = UTC
MEAN_ELEMENT_THEORY = SGP/SGP4

EPOCH          = 2026-02-23T02:55:24.134304
MEAN_MOTION    = 15.34421051
ECCENTRICITY   = .0007599
INCLINATION    = 51.8814
RA_OF_ASC_NODE = 289.4252
ARG_OF_PERICENTER = 8.0724
MEAN_ANOMALY   = 352.0383

EPHEMERIS_TYPE = 0
CLASSIFICATION_TYPE = U
NORAD_CAT_ID   = 67786
ELEMENT_SET_NO = 999
REV_AT_EPOCH   = 285
BSTAR          = .11759E-2
MEAN_MOTION_DOT = .39658E-3
MEAN_MOTION_DDOT = 0

CCSDS_OMM_VERS = 2.0
CREATION_DATE  = 
ORIGINATOR     = 

OBJECT_NAME    = KUIPER-00260
OBJECT_ID      = 2026-030Z
CENTER_NAME    = EARTH
REF_FRAME      = TEME
TIME_SYSTEM    = UTC
MEAN_ELEMENT_THEORY = SGP/SGP4

EPOCH          = 2026-02-23T04:15:25.605216
MEAN_MOTION    = 15.35775353
ECCENTRICITY   = .0001217
INCLINATION    = 51.8806
RA_OF_ASC_NODE = 289.0503
ARG_OF_PERICENTER = 83.2005
MEAN_ANOMALY   = 276.9120

EPHEMERIS_TYPE = 0
CLASSIFICATION_TYPE = U
NORAD_CAT_ID   = 67787
ELEMENT_SET_NO = 999
REV_AT_EPOCH   = 277
BSTAR          = .17056E-3
MEAN_MOTION_DOT = .5648E-4
MEAN_MOTION_DDOT = 0

CCSDS_OMM_VERS = 2.0
CREATION_DATE  = 
ORIGINATOR     = 

OBJECT_NAME    = KUIPER-00262
OBJECT_ID      = 2026-030AA
CENTER_NAME    = EARTH
REF_FRAME      = TEME
TIME_SYSTEM    = UTC
MEAN_ELEMENT_THEORY = SGP/SGP4

EPOCH          = 2026-02-23T04:13:18.192864
MEAN_MOTION    = 15.36060404
ECCENTRICITY   = .0001622
INCLINATION    = 51.8819
RA_OF_ASC_NODE = 289.0420
ARG_OF_PERICENTER = 123.0338
MEAN_ANOMALY   = 237.0804

EPHEMERIS_TYPE = 0
CLASSIFICATION_TYPE = U
NORAD_CAT_ID   = 67788
ELEMENT_SET_NO = 999
REV_AT_EPOCH   = 286
BSTAR          = .76755E-3
MEAN_MOTION_DOT = .27086E-3
MEAN_MOTION_DDOT = 0

CCSDS_OMM_VERS = 2.0
CREATION_DATE  = 
ORIGINATOR     = 

OBJECT_NAME    = KUIPER-00266
OBJECT_ID      = 2026-030AB
CENTER_NAME    = EARTH
REF_FRAME      = TEME
TIME_SYSTEM    = UTC
MEAN_ELEMENT_THEORY = SGP/SGP4

EPOCH          = 2026-02-23T03:21:47.219040
MEAN_MOTION    = 15.31440586
ECCENTRICITY   = .0021972
INCLINATION    = 51.8807
RA_OF_ASC_NODE = 289.5407
ARG_OF_PERICENTER = 29.4156
MEAN_ANOMALY   = 330.8059

EPHEMERIS_TYPE = 0
CLASSIFICATION_TYPE = U
NORAD_CAT_ID   = 67789
ELEMENT_SET_NO = 999
REV_AT_EPOCH   = 285
BSTAR          = .70224E-3
MEAN_MOTION_DOT = .21481E-3
MEAN_MOTION_DDOT = 0

