KUIPER-00214            
1 67778U 26030Q   26054.17514024  .00032504  00000+0  91683-3 0  9990
2 67778  51.8850 289.0390 0001821 148.9267 211.1827 15.36109450  2866
KUIPER-00215            
1 67779U 26030R   26054.12530229  .00023204  00000+0  70600-3 0  9994
2 67779  51.8843 289.4526 0009912  17.0208 343.1108 15.33869337  2855
KUIPER-00218            
1 67780U 26030S   26054.12071471  .00036261  00000+0  10714-2 0  9991
2 67780  51.8837 289.4216 0006083  13.8170 346.2981 15.34583937  2857
KUIPER-00220            
1 67781U 26030T   26054.12373019  .00025003  00000+0  75467-3 0  9994
2 67781  51.8815 289.4381 0007872  14.8506 345.2709 15.34095304  2851
KUIPER-00222            
1 67782U 26030U   26054.13321284 -.00014349  00000+0 -43836-3 0  9991
2 67782  51.8811 289.4964 0016887  20.3416 339.8238 15.32428965  2850
KUIPER-00223            
1 67783U 26030V   26054.12714696  .00029359  00000+0  89655-3 0  9998
2 67783  51.8831 289.4631 0011985  16.8912 343.2470 15.33598050  2850
KUIPER-00225            
1 67784U 26030W   26054.18138331  .00025769  00000+0  75054-3 0  9990
2 67784  51.8816 289.0763 0003364   5.4628 354.6394 15.35225347  2866
KUIPER-00226            
1 67785U 26030X   26054.13792392 -.00021797  00000+0 -68704-3 0  9992
2 67785  51.8809 289.5280 0019651  28.2539 331.9507 15.31710744  2857
KUIPER-00259            
1 67786U 26030Y   26054.12180711  .00039658  00000+0  11759-2 0  9998
2 67786  51.8814 289.4252 0007599   8.0724 352.0383 15.34421051  2851
KUIPER-00260            
1 67787U 26030Z   26054.17737969  .00005648  00000+0  17056-3 0  9996
2 67787  51.8806 289.0503 0001217  83.2005 276.9120 15.35775353  2778
KUIPER-00262            
1 67788U 26030AA  26054.17590501  .00027086  00000+0  76755-3 0  9997
2 67788  51.8819 289.0420 0001622 123.0338 237.0804 15.36060404  2865
KUIPER-00266            
1 67789U 26030AB  26054.14012985  .00021481  00000+0  70224-3 0  9998
2 67789  51.8807 289.5407 0021972  29.4156 330.8059 15.31440586  2851
